ONEWEB-0396             
1 50476U 21132H   26024.22941077  .00000053  00000+0  10164-3 0  9999
2 50476  87.9197   4.0308 0001956  84.1173 276.0182 13.18686523202660
ONEWEB-0397             
1 50477U 21132J   26024.16836828 -.00000028  00000+0 -10345-3 0  9995
2 50477  87.9197   4.0429 0001920  78.6616 281.4732 13.18686290202635
ONEWEB-0398             
1 50478U 21132K   26024.08651119 -.00000422  00000+0 -12259-2 0  9998
2 50478  87.8826  49.7319 0001904 106.7606 253.3731 13.11414653196726
ONEWEB-0399             
1 50479U 21132L   26024.30185547  .00000059  00000+0  13185-3 0  9995
2 50479  87.8819  49.7007 0002308  87.3769 272.7623 13.11415620196748
ONEWEB-0400             
1 50480U 21132M   26023.91930380  .00000066  00000+0  13431-3 0  9998
2 50480  87.9198   4.0825 0001781  90.6066 269.5270 13.18685807202590
ONEWEB-0401             
1 50481U 21132N   26023.43268664  .00000131  00000+0  30062-3 0  9997
2 50481  87.9195   4.1749 0001771  78.4259 281.7072 13.18688343202539
ONEWEB-0402             
1 50482U 21132P   26024.23105080 -.00000072  00000+0 -21544-3 0  9990
2 50482  87.9194   4.0089 0001691  66.8399 293.2911 13.18685378202661
ONEWEB-0403             
1 50483U 21132Q   26024.17992632  .00000098  00000+0  21612-3 0  9993
2 50483  87.9198   4.0410 0001917  85.5627 274.5724 13.18687376202616
ONEWEB-0404             
1 50484U 21132R   26023.52023478  .00000596  00000+0  16470-2 0  9993
2 50484  87.8817  49.8655 0002228  94.4563 265.6819 13.11417166196738
ONEWEB-0405             
1 50485U 21132S   26023.66363503  .00000113  00000+0  25375-3 0  9995
2 50485  87.9199   4.1275 0001903  76.4438 283.6906 13.18686523202945
ONEWEB-0406             
1 50486U 21132T   26024.18487429  .00000061  00000+0  12316-3 0  9991
2 50486  87.9202   4.0496 0002240  93.9956 266.1432 13.18686455202640
ONEWEB-0407             
1 50487U 21132U   26024.17827313  .00000007  00000+0 -14388-4 0  9994
2 50487  87.9200   4.0342 0001640  81.5108 278.6210 13.18686632202586
ONEWEB-0409             
1 50488U 21132V   26023.51854652  .00000560  00000+0  15447-2 0  9996
2 50488  87.8835  49.8415 0002185 100.4493 259.6882 13.11416548196622
ONEWEB-0412             
1 50489U 21132W   26024.24259780  .00000012  00000+0 -16305-5 0  9999
2 50489  87.9200   4.0350 0001786  73.9573 286.1755 13.18685931202689
ONEWEB-0413             
1 50490U 21132X   26023.94403939  .00000024  00000+0  28627-4 0  9995
2 50490  87.9190   4.1030 0001620  75.2717 284.8595 13.18687871202588
ONEWEB-0414             
1 50491U 21132Y   26024.23270634  .00000000  00000+0 -31810-4 0  9996
2 50491  87.9199   4.0131 0001907  78.6854 281.4492 13.18686053202654
ONEWEB-0417             
1 50492U 21132Z   26024.16506969  .00000040  00000+0  67857-4 0  9995
2 50492  87.9190   4.0583 0002012  86.9115 273.2247 13.18686727202629
