[{"OBJECT_NAME":"ONEWEB-0396","OBJECT_ID":"2021-132H","EPOCH":"2026-01-24T05:30:21.090528","MEAN_MOTION":13.18686523,"ECCENTRICITY":0.00019569,"INCLINATION":87.9197,"RA_OF_ASC_NODE":4.0308,"ARG_OF_PERICENTER":84.1173,"MEAN_ANOMALY":276.0182,"EPHEMERIS_TYPE":0,"CLASSIFICATION_TYPE":"U","NORAD_CAT_ID":50476,"ELEMENT_SET_NO":999,"REV_AT_EPOCH":20266,"BSTAR":0.00010164496,"MEAN_MOTION_DOT":5.3e-7,"MEAN_MOTION_DDOT":0},{"OBJECT_NAME":"ONEWEB-0397","OBJECT_ID":"2021-132J","EPOCH":"2026-01-24T04:02:27.019392","MEAN_MOTION":13.1868629,"ECCENTRICITY":0.00019208,"INCLINATION":87.9197,"RA_OF_ASC_NODE":4.0429,"ARG_OF_PERICENTER":78.6616,"MEAN_ANOMALY":281.4732,"EPHEMERIS_TYPE":0,"CLASSIFICATION_TYPE":"U","NORAD_CAT_ID":50477,"ELEMENT_SET_NO":999,"REV_AT_EPOCH":20263,"BSTAR":-0.00010344968,"MEAN_MOTION_DOT":-2.8e-7,"MEAN_MOTION_DDOT":0},{"OBJECT_NAME":"ONEWEB-0398","OBJECT_ID":"2021-132K","EPOCH":"2026-01-24T02:04:34.566816","MEAN_MOTION":13.11414653,"ECCENTRICITY":0.00019049,"INCLINATION":87.8826,"RA_OF_ASC_NODE":49.7319,"ARG_OF_PERICENTER":106.7606,"MEAN_ANOMALY":253.3731,"EPHEMERIS_TYPE":0,"CLASSIFICATION_TYPE":"U","NORAD_CAT_ID":50478,"ELEMENT_SET_NO":999,"REV_AT_EPOCH":19672,"BSTAR":-0.0012258984,"MEAN_MOTION_DOT":-4.22e-6,"MEAN_MOTION_DDOT":0},{"OBJECT_NAME":"ONEWEB-0399","OBJECT_ID":"2021-132L","EPOCH":"2026-01-24T07:14:40.312608","MEAN_MOTION":13.1141562,"ECCENTRICITY":0.0002308,"INCLINATION":87.8819,"RA_OF_ASC_NODE":49.7007,"ARG_OF_PERICENTER":87.3769,"MEAN_ANOMALY":272.7623,"EPHEMERIS_TYPE":0,"CLASSIFICATION_TYPE":"U","NORAD_CAT_ID":50479,"ELEMENT_SET_NO":999,"REV_AT_EPOCH":19674,"BSTAR":0.00013184876,"MEAN_MOTION_DOT":5.9e-7,"MEAN_MOTION_DDOT":0},{"OBJECT_NAME":"ONEWEB-0400","OBJECT_ID":"2021-132M","EPOCH":"2026-01-23T22:03:47.848320","MEAN_MOTION":13.18685807,"ECCENTRICITY":0.0001781,"INCLINATION":87.9198,"RA_OF_ASC_NODE":4.0825,"ARG_OF_PERICENTER":90.6066,"MEAN_ANOMALY":269.527,"EPHEMERIS_TYPE":0,"CLASSIFICATION_TYPE":"U","NORAD_CAT_ID":50480,"ELEMENT_SET_NO":999,"REV_AT_EPOCH":20259,"BSTAR":0.00013431,"MEAN_MOTION_DOT":6.6e-7,"MEAN_MOTION_DDOT":0},{"OBJECT_NAME":"ONEWEB-0401","OBJECT_ID":"2021-132N","EPOCH":"2026-01-23T10:23:04.125696","MEAN_MOTION":13.18688343,"ECCENTRICITY":0.00017714,"INCLINATION":87.9195,"RA_OF_ASC_NODE":4.1749,"ARG_OF_PERICENTER":78.4259,"MEAN_ANOMALY":281.7072,"EPHEMERIS_TYPE":0,"CLASSIFICATION_TYPE":"U","NORAD_CAT_ID":50481,"ELEMENT_SET_NO":999,"REV_AT_EPOCH":20253,"BSTAR":0.00030061818,"MEAN_MOTION_DOT":1.31e-6,"MEAN_MOTION_DDOT":0},{"OBJECT_NAME":"ONEWEB-0402","OBJECT_ID":"2021-132P","EPOCH":"2026-01-24T05:32:42.789120","MEAN_MOTION":13.18685378,"ECCENTRICITY":0.00016914,"INCLINATION":87.9194,"RA_OF_ASC_NODE":4.0089,"ARG_OF_PERICENTER":66.8399,"MEAN_ANOMALY":293.2911,"EPHEMERIS_TYPE":0,"CLASSIFICATION_TYPE":"U","NORAD_CAT_ID":50482,"ELEMENT_SET_NO":999,"REV_AT_EPOCH":20266,"BSTAR":-0.00021544465,"MEAN_MOTION_DOT":-7.2e-7,"MEAN_MOTION_DDOT":0},{"OBJECT_NAME":"ONEWEB-0403","OBJECT_ID":"2021-132Q","EPOCH":"2026-01-24T04:19:05.634048","MEAN_MOTION":13.18687376,"ECCENTRICITY":0.00019176,"INCLINATION":87.9198,"RA_OF_ASC_NODE":4.041,"ARG_OF_PERICENTER":85.5627,"MEAN_ANOMALY":274.5724,"EPHEMERIS_TYPE":0,"CLASSIFICATION_TYPE":"U","NORAD_CAT_ID":50483,"ELEMENT_SET_NO":999,"REV_AT_EPOCH":20261,"BSTAR":0.00021612492,"MEAN_MOTION_DOT":9.8e-7,"MEAN_MOTION_DDOT":0},{"OBJECT_NAME":"ONEWEB-0404","OBJECT_ID":"2021-132R","EPOCH":"2026-01-23T12:29:08.284992","MEAN_MOTION":13.11417166,"ECCENTRICITY":0.00022289,"INCLINATION":87.8817,"RA_OF_ASC_NODE":49.8655,"ARG_OF_PERICENTER":94.4563,"MEAN_ANOMALY":265.6819,"EPHEMERIS_TYPE":0,"CLASSIFICATION_TYPE":"U","NORAD_CAT_ID":50484,"ELEMENT_SET_NO":999,"REV_AT_EPOCH":19673,"BSTAR":0.0016469847,"MEAN_MOTION_DOT":5.96e-6,"MEAN_MOTION_DDOT":0},{"OBJECT_NAME":"ONEWEB-0405","OBJECT_ID":"2021-132S","EPOCH":"2026-01-23T15:55:38.066592","MEAN_MOTION":13.18686523,"ECCENTRICITY":0.00019034,"INCLINATION":87.9199,"RA_OF_ASC_NODE":4.1275,"ARG_OF_PERICENTER":76.4438,"MEAN_ANOMALY":283.6906,"EPHEMERIS_TYPE":0,"CLASSIFICATION_TYPE":"U","NORAD_CAT_ID":50485,"ELEMENT_SET_NO":999,"REV_AT_EPOCH":20294,"BSTAR":0.00025374809,"MEAN_MOTION_DOT":1.13e-6,"MEAN_MOTION_DDOT":0},{"OBJECT_NAME":"ONEWEB-0406","OBJECT_ID":"2021-132T","EPOCH":"2026-01-24T04:26:13.138656","MEAN_MOTION":13.18686455,"ECCENTRICITY":0.00022409,"INCLINATION":87.9202,"RA_OF_ASC_NODE":4.0496,"ARG_OF_PERICENTER":93.9956,"MEAN_ANOMALY":266.1432,"EPHEMERIS_TYPE":0,"CLASSIFICATION_TYPE":"U","NORAD_CAT_ID":50486,"ELEMENT_SET_NO":999,"REV_AT_EPOCH":20264,"BSTAR":0.00012316354,"MEAN_MOTION_DOT":6.1e-7,"MEAN_MOTION_DDOT":0},{"OBJECT_NAME":"ONEWEB-0407","OBJECT_ID":"2021-132U","EPOCH":"2026-01-24T04:16:42.798432","MEAN_MOTION":13.18686632,"ECCENTRICITY":0.00016406,"INCLINATION":87.92,"RA_OF_ASC_NODE":4.0342,"ARG_OF_PERICENTER":81.5108,"MEAN_ANOMALY":278.621,"EPHEMERIS_TYPE":0,"CLASSIFICATION_TYPE":"U","NORAD_CAT_ID":50487,"ELEMENT_SET_NO":999,"REV_AT_EPOCH":20258,"BSTAR":-1.4387666e-5,"MEAN_MOTION_DOT":7.0e-8,"MEAN_MOTION_DDOT":0},{"OBJECT_NAME":"ONEWEB-0409","OBJECT_ID":"2021-132V","EPOCH":"2026-01-23T12:26:42.419328","MEAN_MOTION":13.11416548,"ECCENTRICITY":0.00021859,"INCLINATION":87.8835,"RA_OF_ASC_NODE":49.8415,"ARG_OF_PERICENTER":100.4493,"MEAN_ANOMALY":259.6882,"EPHEMERIS_TYPE":0,"CLASSIFICATION_TYPE":"U","NORAD_CAT_ID":50488,"ELEMENT_SET_NO":999,"REV_AT_EPOCH":19662,"BSTAR":0.0015446854,"MEAN_MOTION_DOT":5.6e-6,"MEAN_MOTION_DDOT":0},{"OBJECT_NAME":"ONEWEB-0412","OBJECT_ID":"2021-132W","EPOCH":"2026-01-24T05:49:20.449920","MEAN_MOTION":13.18685931,"ECCENTRICITY":0.00017869,"INCLINATION":87.92,"RA_OF_ASC_NODE":4.035,"ARG_OF_PERICENTER":73.9573,"MEAN_ANOMALY":286.1755,"EPHEMERIS_TYPE":0,"CLASSIFICATION_TYPE":"U","NORAD_CAT_ID":50489,"ELEMENT_SET_NO":999,"REV_AT_EPOCH":20268,"BSTAR":-1.630532e-6,"MEAN_MOTION_DOT":1.2e-7,"MEAN_MOTION_DDOT":0},{"OBJECT_NAME":"ONEWEB-0413","OBJECT_ID":"2021-132X","EPOCH":"2026-01-23T22:39:25.003296","MEAN_MOTION":13.18687871,"ECCENTRICITY":0.000162,"INCLINATION":87.919,"RA_OF_ASC_NODE":4.103,"ARG_OF_PERICENTER":75.2717,"MEAN_ANOMALY":284.8595,"EPHEMERIS_TYPE":0,"CLASSIFICATION_TYPE":"U","NORAD_CAT_ID":50490,"ELEMENT_SET_NO":999,"REV_AT_EPOCH":20258,"BSTAR":2.8627e-5,"MEAN_MOTION_DOT":2.4e-7,"MEAN_MOTION_DDOT":0},{"OBJECT_NAME":"ONEWEB-0414","OBJECT_ID":"2021-132Y","EPOCH":"2026-01-24T05:35:05.827776","MEAN_MOTION":13.18686053,"ECCENTRICITY":0.00019073,"INCLINATION":87.9199,"RA_OF_ASC_NODE":4.0131,"ARG_OF_PERICENTER":78.6854,"MEAN_ANOMALY":281.4492,"EPHEMERIS_TYPE":0,"CLASSIFICATION_TYPE":"U","NORAD_CAT_ID":50491,"ELEMENT_SET_NO":999,"REV_AT_EPOCH":20265,"BSTAR":-3.1810062e-5,"MEAN_MOTION_DOT":0,"MEAN_MOTION_DDOT":0},{"OBJECT_NAME":"ONEWEB-0417","OBJECT_ID":"2021-132Z","EPOCH":"2026-01-24T03:57:42.021216","MEAN_MOTION":13.18686727,"ECCENTRICITY":0.00020124,"INCLINATION":87.919,"RA_OF_ASC_NODE":4.0583,"ARG_OF_PERICENTER":86.9115,"MEAN_ANOMALY":273.2247,"EPHEMERIS_TYPE":0,"CLASSIFICATION_TYPE":"U","NORAD_CAT_ID":50492,"ELEMENT_SET_NO":999,"REV_AT_EPOCH":20262,"BSTAR":6.785678e-5,"MEAN_MOTION_DOT":4.0e-7,"MEAN_MOTION_DDOT":0}]
